STARLINK-36050          
1 66602U 25270Q   25362.28970621  .00064235  00000+0  15297-2 0  9994
2 66602  43.0006 103.0933 0006732 287.8092  72.2030 15.40727044  6642
STARLINK-36048          
1 66603U 25270R   25362.26954900  .00070856  00000+0  16848-2 0  9994
2 66603  42.9977 102.9390 0001038 314.1767  45.9004 15.40752762  6643
STARLINK-35977          
1 66604U 25270S   25361.35746520  .00061819  00000+0  14742-2 0  9991
2 66604  42.9989 108.1310 0001683 264.0627  96.0038 15.40720018  6600
STARLINK-36052          
1 66605U 25270T   25362.31645002  .00065631  00000+0  15626-2 0  9990
2 66605  43.0008 102.4255 0001414 270.0803  89.9891 15.40744270  6755
STARLINK-36063          
1 66606U 25270U   25362.30076673  .00060064  00000+0  14308-2 0  9993
2 66606  42.9957 102.2996 0000056 156.8550 203.2309 15.40763181  6755
STARLINK-35993          
1 66607U 25270V   25361.01764808  .00049906  00000+0  11936-2 0  9991
2 66607  42.9959 109.8792 0000480  40.5095 319.5797 15.40714883  6453
STARLINK-36036          
1 66608U 25270W   25362.29852992  .00095768  00000+0  22660-2 0  9998
2 66608  42.9954 102.2844 0000780 272.5886  87.4881 15.40769415  6593
STARLINK-36034          
1 66609U 25270X   25362.29405098  .00080064  00000+0  18997-2 0  9991
2 66609  42.9942 102.2490 0000897 180.8206 179.2649 15.40765853  6598
STARLINK-35680          
1 66610U 25270Y   25362.30972893  .00076115  00000+0  18071-2 0  9992
2 66610  42.9984 102.3708 0003640 290.0290  70.0175 15.40765317  6862
STARLINK-35583          
1 66611U 25270Z   25362.30525096  .00058961  00000+0  14055-2 0  9999
2 66611  42.9974 102.3369 0000590 150.1211 209.9679 15.40750128  6861
STARLINK-36039          
1 66612U 25270AA  25362.28522986  .00059368  00000+0  14132-2 0  9990
2 66612  42.9980 103.0552 0001119 219.6855 140.3919 15.40791376  6746
STARLINK-36037          
1 66613U 25270AB  25362.28074669  .00047880  00000+0  11447-2 0  9993
2 66613  42.9995 103.0209 0003322 278.7867  81.2613 15.40737313  6744
